[{"OBJECT_NAME":"IRIDIUM 154","OBJECT_ID":"2018-061F","EPOCH":"2026-03-09T19:28:30.566496","MEAN_MOTION":14.34219109,"ECCENTRICITY":0.00022519,"INCLINATION":86.3916,"RA_OF_ASC_NODE":98.3738,"ARG_OF_PERICENTER":97.8524,"MEAN_ANOMALY":262.2928,"EPHEMERIS_TYPE":0,"CLASSIFICATION_TYPE":"U","NORAD_CAT_ID":43574,"ELEMENT_SET_NO":999,"REV_AT_EPOCH":39916,"BSTAR":1.1681552e-5,"MEAN_MOTION_DOT":5.3e-7,"MEAN_MOTION_DDOT":0},{"OBJECT_NAME":"SHIYAN-6 02 (SY-6 02)","OBJECT_ID":"2020-043A","EPOCH":"2026-03-09T23:39:34.759872","MEAN_MOTION":14.60858105,"ECCENTRICITY":0.01291304,"INCLINATION":98.1903,"RA_OF_ASC_NODE":81.3443,"ARG_OF_PERICENTER":176.0453,"MEAN_ANOMALY":184.1801,"EPHEMERIS_TYPE":0,"CLASSIFICATION_TYPE":"U","NORAD_CAT_ID":45859,"ELEMENT_SET_NO":999,"REV_AT_EPOCH":30237,"BSTAR":7.5299693e-5,"MEAN_MOTION_DOT":3.6e-6,"MEAN_MOTION_DDOT":0}]
